CHINASAT 2D (ZX 2D)     
1 43920U 19001A   21340.35086799 -.00000331  00000+0  00000+0 0  9992
2 43920   0.0072   4.7010 0001469   6.2702 320.7199  1.00271770 10768
HELLAS-SAT 4 & SGS-1    
1 44034U 19007A   21342.26221736  .00000153  00000+0  00000+0 0  9990
2 44034   0.0653 132.3529 0005070  40.8627  37.4548  1.00263903 10786
GSAT-31                 
1 44035U 19007B   21341.83331285  .00000125  00000+0  00000+0 0  9993
2 44035   0.0130  28.7852 0004969 225.0455 170.8888  1.00271830 10402
NUSANTARA SATU          
1 44048U 19009A   21341.85293698 -.00000234  00000+0  00000+0 0  9998
2 44048   0.0153   1.1484 0001833 253.2869 275.4783  1.00269877 10196
CHINASAT 6C (ZX 6C)     
1 44067U 19012A   21342.49899456 -.00000338  00000+0  00000+0 0  9993
2 44067   0.0488 273.0708 0003630   9.9629 104.0582  1.00267558 10170
WGS 10 (USA 291)        
1 44071U 19014A   21342.48174590  .00000046  00000+0  00000+0 0  9999
2 44071   0.0307  90.6628 0000233  38.9564 181.6031  1.00271234 10047
TIANLIAN 2-01           
1 44076U 19017A   21341.93276774 -.00000135  00000+0  00000+0 0  9993
2 44076   0.7036 282.3134 0031670 230.2373 340.1706  1.00269310 10047
ARABSAT-6A              
1 44186U 19021A   21342.47581506  .00000153  00000+0  00000+0 0  9991
2 44186   0.0449 332.7107 0006120 293.7319  12.8010  1.00272119  9585
BEIDOU-3 IGSO-1         
1 44204U 19023A   21341.36991135 -.00000236  00000+0  00000+0 0  9997
2 44204  56.2768  55.0481 0023247 190.4360  82.9369  1.00269068  9787
BEIDOU-2 G8             
1 44231U 19027A   21341.92440575 -.00000247  00000+0  00000+0 0  9992
2 44231   0.4309  57.6386 0006489 154.2970 342.2967  1.00269111  9500
YAMAL 601               
1 44307U 19031A   21341.76179380  .00000121  00000+0  00000+0 0  9996
2 44307   0.0093 103.1095 0002018 150.3063 146.5749  1.00270906  9369
AT&T T-16               
1 44333U 19034A   21341.66009722 -.00000114  00000+0  00000+0 0  9992
2 44333   0.0129 311.4343 0000915 189.1190  72.8710  1.00268412  9057
EUTELSAT 7C             
1 44334U 19034B   21342.26374071  .00000047  00000+0  00000+0 0  9996
2 44334   0.0389 262.1518 0003006 331.8358 305.2142  1.00266424  9567
BEIDOU-3 IGSO-2         
1 44337U 19035A   21340.42445330 -.00000066  00000+0  00000+0 0  9995
2 44337  55.1180 173.4499 0020661 176.4290 356.8111  1.00258833  9110
COSMOS 2539             
1 44457U 19048A   21342.54393257  .00000080  00000+0  00000+0 0  9992
2 44457   0.0487 122.4953 0000734 286.8968 235.9318  1.00270116  8661
EDRS-C                  
1 44475U 19049A   21341.70035912  .00000155  00000+0  00000+0 0  9994
2 44475   0.0685 267.5089 0000813 328.7961 123.6961  1.00270713  8625
INTELSAT 39 (IS-39)     
1 44476U 19049B   21342.07790491  .00000034  00000+0  00000+0 0  9992
2 44476   0.0172 337.5776 0000848 158.2479  31.2320  1.00270972  8581
AMOS-17                 
1 44479U 19050A   21341.82720755  .00000110  00000+0  00000+0 0  9990
2 44479   0.0263  66.3570 0001668 186.3312 138.9370  1.00269356  8611
AEHF-5 (USA 292)        
1 44481U 19051A   21342.48061206  .00000081  00000+0  00000+0 0  9993
2 44481   4.8097 305.1640 0003365 279.3917  80.6208  1.00277651  8703
EUTELSAT 5 WEST B       
1 44624U 19067A   21342.32518899 -.00000042  00000+0  00000+0 0  9995
2 44624   0.0670 352.3762 0003402 157.4483  39.5658  1.00273710  7873
MEV-1                   
1 44625U 19067B   21341.74653060 -.00000201  00000+0  00000+0 0  9998
2 44625   0.0119  30.7026 0000852 215.6548  71.6273  1.00270050  6409
TJS-4                   
1 44637U 19070A   21342.07179053 -.00000169  00000+0  00000+0 0  9990
2 44637   0.0673  74.9495 0000875 294.6520 176.7241  1.00274797  7987
BEIDOU-3 IGSO-3         
1 44709U 19073A   21341.65963527 -.00000198  00000+0  00000+0 0  9995
2 44709  57.5734 298.3700 0018860 187.4426 307.7605  1.00265235  7886
TIBA-1                  
1 44800U 19080A   21342.59020870  .00000155  00000+0  00000+0 0  9996
2 44800   0.0523   6.1774 0001800 245.7094  73.6380  1.00271576  7512
INMARSAT GX5            
1 44801U 19080B   21342.10899618  .00000075  00000+0  00000+0 0  9999
2 44801   0.0377 342.7353 0001980 264.4722 240.1220  1.00273727  7522
JCSAT-18 (KACIFIC 1)    
1 44868U 19091A   21342.42549455 -.00000201  00000+0  00000+0 0  9992
2 44868   0.0151  97.5458 0000595 188.7105  94.3135  1.00269795  7535
ELEKTRO-L 3             
1 44903U 19095A   21342.48488575 -.00000097  00000+0  00000+0 0  9990
2 44903   0.0662 152.8778 0001335 117.5653  57.5598  1.00271558  7144
SHIJIAN-20 (SJ-20)      
1 44910U 19097A   21342.70629554 -.00000208  00000+0  00000+0 0  9993
2 44910   0.6924  93.3922 0002054 317.9213   8.0459  1.00277294  7135
TJS-5                   
1 44978U 20002A   21342.69947993 -.00000343  00000+0  00000+0 0  9993
2 44978   0.1147 293.1809 0005059 241.7088 262.1153  1.00268904  7140
GSAT-30                 
1 45026U 20005A   21342.48628125 -.00000165  00000+0  00000+0 0  9993
2 45026   0.0140 274.5474 0002121 219.1490 201.8201  1.00269773  6969
EUTELSAT KONNECT        
1 45027U 20005B   21342.10890472  .00000049  00000+0  00000+0 0  9999
2 45027   0.0602 103.7203 0001086 258.3969 121.4231  1.00266592  7766
JCSAT-17                
1 45245U 20013A   21342.36458787 -.00000318  00000+0  00000+0 0  9997
2 45245   6.3422 344.6547 0003347 283.7145  76.2417  1.00272648  6686
GEO-KOMPSAT-2B          
1 45246U 20013B   21341.84936101 -.00000343  00000+0  00000+0 0  9999
2 45246   0.0386 219.6677 0001762  35.9884 255.2175  1.00270239  6705
BEIDOU-3 G2             
1 45344U 20017A   21342.48567072 -.00000142  00000+0  00000+0 0  9997
2 45344   2.2281 343.3115 0001431 190.2469 158.8030  1.00270921  6707
AEHF-6 (USA 298)        
1 45465U 20022B   21341.86561697 -.00000297  00000+0  00000+0 0  9996
2 45465   6.3871 304.4891 0051254 352.4963 229.2718  1.00271885  6413
BEIDOU-3 G3             
1 45807U 20040A   21342.51080711 -.00000354  00000+0  00000+0 0  9996
2 45807   1.8813 299.8549 0009268 344.3069  87.7336  1.00274780  5522
APSTAR 6D               
1 45863U 20045A   21342.44354917 -.00000319  00000+0  00000+0 0  9998
2 45863   0.0484  99.0551 0001208  92.1348 179.8906  1.00265721  5291
KOREASAT 116            
1 45920U 20048A   21342.06229792 -.00000362  00000+0  00000+0 0  9993
2 45920   0.0126 327.4205 0000820 258.0937 350.1672  1.00273238  5081
EXPRESS 103             
1 45985U 20053A   21341.51943485 -.00000279  00000+0  00000+0 0  9998
2 45985   0.0119 246.8784 0000390  73.9884  39.1398  1.00271673  5076
EXPRESS 80              
1 45986U 20053B   21341.93276774 -.00000135  00000+0  00000+0 0  9996
2 45986   0.0160 264.3387 0000878  73.8869 154.4838  1.00270506  5074
BSAT-4B                 
1 46112U 20056A   21341.81160622 -.00000350  00000+0  00000+0 0  9991
2 46112   0.0789 116.6407 0002240  68.8906 293.2821  1.00272462  4825
MEV-2                   
1 46113U 20056B   21341.03660684 -.00000008  00000+0  00000+0 0  9999
2 46113   0.0201  51.2622 0000636 245.7092 151.2693  1.00272575 63973
GALAXY 30 (G-30)        
1 46114U 20056C   21342.47410639  .00000036  00000+0  00000+0 0  9992
2 46114   0.0159  17.1123 0001670 216.7003 249.3231  1.00269777  4840
GAOFEN 13               
1 46610U 20071A   21342.44278362 -.00000362  00000+0  00000+0 0  9995
2 46610   0.9712 275.0326 0002422 248.6607 190.8877  1.00265534  4343
TIANTONG-1 2            
1 46916U 20082A   21342.35109285 -.00000355  00000+0  00000+0 0  9995
2 46916   4.5859 296.9535 0001341 340.4836  51.2265  1.00272898  4085
LUCAS (JDRS-1)          
1 47202U 20089A   21342.41607050 -.00000235  00000+0  00000+0 0  9998
2 47202   0.0138  26.6579 0002671 238.5553  52.7357  1.00268485  3838
SXM-7                   
1 47240U 20096A   21341.74354991 -.00000021  00000+0  00000+0 0  9999
2 47240   0.0177 341.6890 0000728 162.4293  84.9744  1.00270803  3740
CMS-01                  
1 47256U 20099A   21342.44188234 -.00000165  00000+0  00000+0 0  9991
2 47256   0.0727 106.4898 0007730 157.2659  55.7418  1.00270576  3629
TURKSAT 5A              
1 47306U 21001A   21342.28660444  .00000154  00000+0  00000+0 0  9998
2 47306   0.0186  62.0879 0000159 273.6014 235.6765  1.00276213  3422
TIANTONG-1 3            
1 47321U 21003A   21341.98353978 -.00000154  00000+0  00000+0 0  9995
2 47321   4.8498 308.6638 0004200 303.1089 260.7754  1.00270073  3404
TJS-6                   
1 47613U 21010A   21342.50743913  .00000042  00000+0  00000+0 0  9993
2 47613   0.2820 282.8527 0001983  14.3269 141.4334  1.00271053  3265
SBIRS GEO-5 (USA 315)   
1 48618U 21042A   21342.18405470  .00000076  00000+0  00000+0 0  9998
2 48618   7.6697 326.9596 0002041 251.5445 292.1856  1.00539800  2165
FENGYUN 4B              
1 48808U 21047A   21341.93647163 -.00000357  00000+0  00000+0 0  9996
2 48808   0.0738 295.7574 0004372 142.3366  99.3913  1.00264904  2000
SXM-8                   
1 48838U 21049A   21342.59626356 -.00000206  00000+0  00000+0 0  9998
2 48838   0.0570 104.2374 0002702 213.5983 249.1919  1.00271064  2062
TIANLIAN 1-05           
1 49011U 21063A   21341.82589927  .00000073  00000+0  00000+0 0  9996
2 49011   2.6455 285.3004 0003752   7.1774  92.2423  1.00268719  1517
STAR ONE D2             
1 49055U 21069A   21340.98353370 -.00000261  00000+0  00000+0 0  9997
2 49055   0.0026 334.0081 0002283 258.8526 127.1185  1.00270543  1348
EUTELSAT QUANTUM        
1 49056U 21069B   21341.83331285  .00000126  00000+0  00000+0 0  9993
2 49056   0.0149  14.0214 0003291 269.4997 140.9956  1.00272119  1359
CHINASAT 2E (ZX 2E)     
1 49062U 21071A   21341.91516061 -.00000291  00000+0  00000+0 0  9993
2 49062   0.0534 226.0850 0002188 106.7446 171.5921  1.00270546  1490
TJS-7                   
1 49115U 21077A   21342.21187735 -.00000230  00000+0  00000+0 0  9997
2 49115   0.7658 273.9274 0002261 330.9097  55.1462  1.00269531  1241
